COSMOS 2547             
1 46805U 20075A   26086.76204793 -.00000031  00000+0  00000+0 0  9990
2 46805  64.5985 195.1905 0007370 232.5213 127.4084  2.13100219 42176
GPS BIII-4              
1 46826U 20078A   26095.71184957  .00000006  00000+0  00000+0 0  9991
2 46826  53.9938 213.7167 0069971 205.1796 325.3931  2.00565249 40052
GSAT0223 (GALILEO 27)   
1 49809U 21116A   26094.95822476 -.00000093  00000+0  00000+0 0  9996
2 49809  57.1835 343.6546 0001263 288.2502 249.3367  1.70475996 26933
GSAT0224 (GALILEO 28)   
1 49810U 21116B   26095.36086236 -.00000092  00000+0  00000+0 0  9999
2 49810  57.1848 343.6426 0001177  35.0480 142.2428  1.70476035 26960
GOES 18                 
1 51850U 22021A   26095.71782896  .00000098  00000+0  00000+0 0  9991
2 51850   0.0479  40.6556 0000631  33.1922 241.5875  1.00270694  5867
COSMOS 2557 (706K)      
1 52984U 22075A   26095.37367723 -.00000047  00000+0  00000+0 0  9994
2 52984  64.3402 317.0513 0010730 283.4282  76.4990  2.13102008 29169
METEOSAT-12 (MTG-I1)    
1 54743U 22170C   26095.81619560 -.00000005  00000+0  00000+0 0  9997
2 54743   0.7413  26.6706 0001491 304.5812 156.3944  1.00274951 12256
METEOR-M2 3             
1 57166U 23091A   26095.86870251  .00000028  00000+0  31005-4 0  9991
2 57166  98.6162 152.3021 0004433  36.0425 324.1052 14.24040719144229
COSMOS 2569 (703K)      
1 57517U 23114A   26095.04920926  .00000000  00000+0  00000+0 0  9998
2 57517  65.2620  75.0854 0012836 293.8382  66.0118  2.13103949 20705
METEOR-M2 4             
1 59051U 24039A   26095.87167196  .00000054  00000+0  44007-4 0  9992
2 59051  98.6950  56.1049 0007598  27.3270 332.8307 14.22421687108983
GSAT0225 (GALILEO 29)   
1 59598U 24079A   26087.07569868  .00000039  00000+0  00000+0 0  9990
2 59598  55.0678 103.3445 0002740 270.8462 214.7370  1.70474547 11938
GSAT0227 (GALILEO 30)   
1 59600U 24079C   26094.68007228  .00000028  00000+0  00000+0 0  9994
2 59600  55.0670 103.1309 0000783   7.5517 352.4755  1.70474700 12111
GSAT0232 (GALILEO 32)   
1 61182U 24167A   26091.38929149 -.00000024  00000+0  00000+0 0  9996
2 61182  55.2109 223.4183 0004053 206.9701 148.9260  1.70474484  9561
GSAT0226 (GALILEO 31)   
1 61183U 24167B   26095.86530370 -.00000001  00000+0  00000+0 0  9993
2 61183  55.2072 223.3032 0001476 167.6532 146.6309  1.70474509  9617
GSAT0233 (GALILEO 33)   
1 67160U 25302A   26094.91483681  .00000027  00000+0  00000+0 0  9990
2 67160  54.2855 104.2166 0002489 236.9893 310.4133  1.70474884  1878
GSAT0234 (GALILEO 34)   
1 67162U 25302C   26092.85132073  .00000029  00000+0  00000+0 0  9991
2 67162  54.2863 104.2742 0003884 286.4300 254.6427  1.70474820  1899
