[{"OBJECT_NAME":"COSMOS 2547","OBJECT_ID":"2020-075A","EPOCH":"2026-03-27T18:17:20.941152","MEAN_MOTION":2.13100219,"ECCENTRICITY":0.00073709,"INCLINATION":64.5985,"RA_OF_ASC_NODE":195.1905,"ARG_OF_PERICENTER":232.5213,"MEAN_ANOMALY":127.4084,"EPHEMERIS_TYPE":0,"CLASSIFICATION_TYPE":"U","NORAD_CAT_ID":46805,"ELEMENT_SET_NO":999,"REV_AT_EPOCH":4217,"BSTAR":0,"MEAN_MOTION_DOT":-3.1e-7,"MEAN_MOTION_DDOT":0},{"OBJECT_NAME":"GPS BIII-4","OBJECT_ID":"2020-078A","EPOCH":"2026-04-05T17:05:03.802848","MEAN_MOTION":2.00565249,"ECCENTRICITY":0.0069971,"INCLINATION":53.9938,"RA_OF_ASC_NODE":213.7167,"ARG_OF_PERICENTER":205.1796,"MEAN_ANOMALY":325.3931,"EPHEMERIS_TYPE":0,"CLASSIFICATION_TYPE":"U","NORAD_CAT_ID":46826,"ELEMENT_SET_NO":999,"REV_AT_EPOCH":4005,"BSTAR":0,"MEAN_MOTION_DOT":6.0e-8,"MEAN_MOTION_DDOT":0},{"OBJECT_NAME":"GSAT0223 (GALILEO 27)","OBJECT_ID":"2021-116A","EPOCH":"2026-04-04T22:59:50.619264","MEAN_MOTION":1.70475996,"ECCENTRICITY":0.00012633,"INCLINATION":57.1835,"RA_OF_ASC_NODE":343.6546,"ARG_OF_PERICENTER":288.2502,"MEAN_ANOMALY":249.3367,"EPHEMERIS_TYPE":0,"CLASSIFICATION_TYPE":"U","NORAD_CAT_ID":49809,"ELEMENT_SET_NO":999,"REV_AT_EPOCH":2693,"BSTAR":0,"MEAN_MOTION_DOT":-9.3e-7,"MEAN_MOTION_DDOT":0},{"OBJECT_NAME":"GSAT0224 (GALILEO 28)","OBJECT_ID":"2021-116B","EPOCH":"2026-04-05T08:39:38.507904","MEAN_MOTION":1.70476035,"ECCENTRICITY":0.00011776,"INCLINATION":57.1848,"RA_OF_ASC_NODE":343.6426,"ARG_OF_PERICENTER":35.048,"MEAN_ANOMALY":142.2428,"EPHEMERIS_TYPE":0,"CLASSIFICATION_TYPE":"U","NORAD_CAT_ID":49810,"ELEMENT_SET_NO":999,"REV_AT_EPOCH":2696,"BSTAR":0,"MEAN_MOTION_DOT":-9.2e-7,"MEAN_MOTION_DDOT":0},{"OBJECT_NAME":"GOES 18","OBJECT_ID":"2022-021A","EPOCH":"2026-04-05T17:13:40.422144","MEAN_MOTION":1.00270694,"ECCENTRICITY":6.31e-5,"INCLINATION":0.0479,"RA_OF_ASC_NODE":40.6556,"ARG_OF_PERICENTER":33.1922,"MEAN_ANOMALY":241.5875,"EPHEMERIS_TYPE":0,"CLASSIFICATION_TYPE":"U","NORAD_CAT_ID":51850,"ELEMENT_SET_NO":999,"REV_AT_EPOCH":586,"BSTAR":0,"MEAN_MOTION_DOT":9.8e-7,"MEAN_MOTION_DDOT":0},{"OBJECT_NAME":"COSMOS 2557 (706K)","OBJECT_ID":"2022-075A","EPOCH":"2026-04-05T08:58:05.712672","MEAN_MOTION":2.13102008,"ECCENTRICITY":0.001073,"INCLINATION":64.3402,"RA_OF_ASC_NODE":317.0513,"ARG_OF_PERICENTER":283.4282,"MEAN_ANOMALY":76.499,"EPHEMERIS_TYPE":0,"CLASSIFICATION_TYPE":"U","NORAD_CAT_ID":52984,"ELEMENT_SET_NO":999,"REV_AT_EPOCH":2916,"BSTAR":0,"MEAN_MOTION_DOT":-4.7e-7,"MEAN_MOTION_DDOT":0},{"OBJECT_NAME":"METEOSAT-12 (MTG-I1)","OBJECT_ID":"2022-170C","EPOCH":"2026-04-05T19:35:19.299840","MEAN_MOTION":1.00274951,"ECCENTRICITY":0.0001491,"INCLINATION":0.7413,"RA_OF_ASC_NODE":26.6706,"ARG_OF_PERICENTER":304.5812,"MEAN_ANOMALY":156.3944,"EPHEMERIS_TYPE":0,"CLASSIFICATION_TYPE":"U","NORAD_CAT_ID":54743,"ELEMENT_SET_NO":999,"REV_AT_EPOCH":1225,"BSTAR":0,"MEAN_MOTION_DOT":-5.0e-8,"MEAN_MOTION_DDOT":0},{"OBJECT_NAME":"METEOR-M2 3","OBJECT_ID":"2023-091A","EPOCH":"2026-04-05T20:50:55.896864","MEAN_MOTION":14.24040719,"ECCENTRICITY":0.0004433,"INCLINATION":98.6162,"RA_OF_ASC_NODE":152.3021,"ARG_OF_PERICENTER":36.0425,"MEAN_ANOMALY":324.1052,"EPHEMERIS_TYPE":0,"CLASSIFICATION_TYPE":"U","NORAD_CAT_ID":57166,"ELEMENT_SET_NO":999,"REV_AT_EPOCH":14422,"BSTAR":3.1005e-5,"MEAN_MOTION_DOT":2.8e-7,"MEAN_MOTION_DDOT":0},{"OBJECT_NAME":"COSMOS 2569 (703K)","OBJECT_ID":"2023-114A","EPOCH":"2026-04-05T01:10:51.680064","MEAN_MOTION":2.13103949,"ECCENTRICITY":0.00128361,"INCLINATION":65.262,"RA_OF_ASC_NODE":75.0854,"ARG_OF_PERICENTER":293.8382,"MEAN_ANOMALY":66.0118,"EPHEMERIS_TYPE":0,"CLASSIFICATION_TYPE":"U","NORAD_CAT_ID":57517,"ELEMENT_SET_NO":999,"REV_AT_EPOCH":2070,"BSTAR":0,"MEAN_MOTION_DOT":0,"MEAN_MOTION_DDOT":0},{"OBJECT_NAME":"METEOR-M2 4","OBJECT_ID":"2024-039A","EPOCH":"2026-04-05T20:55:12.457344","MEAN_MOTION":14.22421687,"ECCENTRICITY":0.0007598,"INCLINATION":98.695,"RA_OF_ASC_NODE":56.1049,"ARG_OF_PERICENTER":27.327,"MEAN_ANOMALY":332.8307,"EPHEMERIS_TYPE":0,"CLASSIFICATION_TYPE":"U","NORAD_CAT_ID":59051,"ELEMENT_SET_NO":999,"REV_AT_EPOCH":10898,"BSTAR":4.4007e-5,"MEAN_MOTION_DOT":5.4e-7,"MEAN_MOTION_DDOT":0},{"OBJECT_NAME":"GSAT0225 (GALILEO 29)","OBJECT_ID":"2024-079A","EPOCH":"2026-03-28T01:49:00.365952","MEAN_MOTION":1.70474547,"ECCENTRICITY":0.00027404,"INCLINATION":55.0678,"RA_OF_ASC_NODE":103.3445,"ARG_OF_PERICENTER":270.8462,"MEAN_ANOMALY":214.737,"EPHEMERIS_TYPE":0,"CLASSIFICATION_TYPE":"U","NORAD_CAT_ID":59598,"ELEMENT_SET_NO":999,"REV_AT_EPOCH":1193,"BSTAR":0,"MEAN_MOTION_DOT":3.9e-7,"MEAN_MOTION_DDOT":0},{"OBJECT_NAME":"GSAT0227 (GALILEO 30)","OBJECT_ID":"2024-079C","EPOCH":"2026-04-04T16:19:18.244992","MEAN_MOTION":1.704747,"ECCENTRICITY":7.831e-5,"INCLINATION":55.067,"RA_OF_ASC_NODE":103.1309,"ARG_OF_PERICENTER":7.5517,"MEAN_ANOMALY":352.4755,"EPHEMERIS_TYPE":0,"CLASSIFICATION_TYPE":"U","NORAD_CAT_ID":59600,"ELEMENT_SET_NO":999,"REV_AT_EPOCH":1211,"BSTAR":0,"MEAN_MOTION_DOT":2.8e-7,"MEAN_MOTION_DDOT":0},{"OBJECT_NAME":"GSAT0232 (GALILEO 32)","OBJECT_ID":"2024-167A","EPOCH":"2026-04-01T09:20:34.784736","MEAN_MOTION":1.70474484,"ECCENTRICITY":0.00040532,"INCLINATION":55.2109,"RA_OF_ASC_NODE":223.4183,"ARG_OF_PERICENTER":206.9701,"MEAN_ANOMALY":148.926,"EPHEMERIS_TYPE":0,"CLASSIFICATION_TYPE":"U","NORAD_CAT_ID":61182,"ELEMENT_SET_NO":999,"REV_AT_EPOCH":956,"BSTAR":0,"MEAN_MOTION_DOT":-2.4e-7,"MEAN_MOTION_DDOT":0},{"OBJECT_NAME":"GSAT0226 (GALILEO 31)","OBJECT_ID":"2024-167B","EPOCH":"2026-04-05T20:46:02.239680","MEAN_MOTION":1.70474509,"ECCENTRICITY":0.0001476,"INCLINATION":55.2072,"RA_OF_ASC_NODE":223.3032,"ARG_OF_PERICENTER":167.6532,"MEAN_ANOMALY":146.6309,"EPHEMERIS_TYPE":0,"CLASSIFICATION_TYPE":"U","NORAD_CAT_ID":61183,"ELEMENT_SET_NO":999,"REV_AT_EPOCH":961,"BSTAR":0,"MEAN_MOTION_DOT":-1.0e-8,"MEAN_MOTION_DDOT":0},{"OBJECT_NAME":"GSAT0233 (GALILEO 33)","OBJECT_ID":"2025-302A","EPOCH":"2026-04-04T21:57:21.900384","MEAN_MOTION":1.70474884,"ECCENTRICITY":0.00024897,"INCLINATION":54.2855,"RA_OF_ASC_NODE":104.2166,"ARG_OF_PERICENTER":236.9893,"MEAN_ANOMALY":310.4133,"EPHEMERIS_TYPE":0,"CLASSIFICATION_TYPE":"U","NORAD_CAT_ID":67160,"ELEMENT_SET_NO":999,"REV_AT_EPOCH":187,"BSTAR":0,"MEAN_MOTION_DOT":2.7e-7,"MEAN_MOTION_DDOT":0},{"OBJECT_NAME":"GSAT0234 (GALILEO 34)","OBJECT_ID":"2025-302C","EPOCH":"2026-04-02T20:25:54.111072","MEAN_MOTION":1.7047482,"ECCENTRICITY":0.00038847,"INCLINATION":54.2863,"RA_OF_ASC_NODE":104.2742,"ARG_OF_PERICENTER":286.43,"MEAN_ANOMALY":254.6427,"EPHEMERIS_TYPE":0,"CLASSIFICATION_TYPE":"U","NORAD_CAT_ID":67162,"ELEMENT_SET_NO":999,"REV_AT_EPOCH":189,"BSTAR":0,"MEAN_MOTION_DOT":2.9e-7,"MEAN_MOTION_DDOT":0}]
